IRIDIUM 171             
1 43929U 19002H   25157.38808627  .00000141  00000+0  43228-4 0  9999
2 43929  86.3984 150.9337 0002403  80.4508 279.6959 14.34219240335096
IRIDIUM 170             
1 43930U 19002J   25157.43968911  .00000443  00000+0  66280-4 0  9998
2 43930  86.6101 150.6688 0002935  89.8925 270.2628 14.72251449343979
IRIDIUM 167             
1 43931U 19002K   25157.38174785  .00000030  00000+0  37752-5 0  9996
2 43931  86.3975 150.6910 0002685  81.7390 278.4110 14.34217665335093
IRIDIUM 181             
1 56726U 23068S   25157.41047952  .00000251  00000+0  68628-4 0  9998
2 56726  86.4533 213.7311 0002178  79.6175 280.5271 14.43306247108231
IRIDIUM 177             
1 56727U 23068T   25157.39003129  .00000695  00000+0  88004-4 0  9996
2 56727  86.1970 147.2525 0002621  82.7321 277.4198 14.80227746110775
IRIDIUM 174             
1 56728U 23068U   25157.42732423  .00000091  00000+0  10467-4 0  9995
2 56728  86.6110 150.7830 0002361 102.5331 257.6150 14.72244823110738
IRIDIUM 178             
1 56729U 23068V   25157.10872004  .00001133  00000+0  14569-3 0  9995
2 56729  86.6572 182.4551 0002388  94.6704 265.4790 14.80243048110731
IRIDIUM 179             
1 56730U 23068W   25157.37376566  .00001197  00000+0  15402-3 0  9995
2 56730  86.6814 190.1818 0002636  93.9595 266.1928 14.80245204110771
